{
"type": "FeatureCollection",
"name": "comportement",
"crs": { "type": "name", "properties": { "name": "urn:ogc:def:crs:OGC:1.3:CRS84" } },
"features": [
{ "type": "Feature", "properties": { "fid": 107, "type": "Comportement ", "description": "Comportement", "photo": "20260227_103055.jpg" }, "geometry": { "type": "Polygon", "coordinates": [ [ [ -0.697171525525754, 44.906665424898563 ], [ -0.697006978718221, 44.90666846860276 ], [ -0.69701296970598, 44.906610884743529 ], [ -0.697157880859794, 44.906603887027714 ], [ -0.697171525525754, 44.906665424898563 ] ] ] } },
{ "type": "Feature", "properties": { "fid": 108, "type": "Comportement ", "description": "Caillou", "photo": "20260227_103246.jpg" }, "geometry": { "type": "Polygon", "coordinates": [ [ [ -0.695279209300291, 44.908414381183391 ], [ -0.695366937640074, 44.908387422165816 ], [ -0.695325360513579, 44.908316429138551 ], [ -0.695279209300291, 44.908414381183391 ] ] ] } },
{ "type": "Feature", "properties": { "fid": 109, "type": "Comportement ", "description": "Parking", "photo": "20260227_103514.jpg" }, "geometry": { "type": "Polygon", "coordinates": [ [ [ -0.690222685889883, 44.909995012226517 ], [ -0.689942696682603, 44.910042127581399 ], [ -0.689977344101366, 44.909747493025975 ], [ -0.690222685889883, 44.909995012226517 ] ] ] } }
]
}
