{
"type": "FeatureCollection",
"name": "traversee",
"crs": { "type": "name", "properties": { "name": "urn:ogc:def:crs:OGC:1.3:CRS84" } },
"features": [
{ "type": "Feature", "properties": { "fid": 100, "type": "Signa", "description": "Traversee ", "photo": "20260227_102012.jpg" }, "geometry": { "type": "Polygon", "coordinates": [ [ [ -0.701297273568697, 44.90339376799006 ], [ -0.700821839743781, 44.903137404229945 ], [ -0.70138660411522, 44.902879866059948 ], [ -0.701297273568697, 44.90339376799006 ] ] ] } },
{ "type": "Feature", "properties": { "fid": 102, "type": "Signa", "description": "Traversee ", "photo": "20260227_102232.jpg" }, "geometry": { "type": "Polygon", "coordinates": [ [ [ -0.698652841619318, 44.904968055715869 ], [ -0.699247323769423, 44.904895530904405 ], [ -0.699071900891449, 44.904496720228856 ], [ -0.698652841619318, 44.904968055715869 ] ] ] } },
{ "type": "Feature", "properties": { "fid": 104, "type": "Signa", "description": "Traversee", "photo": "20260227_102749.jpg" }, "geometry": { "type": "Polygon", "coordinates": [ [ [ -0.697132366144308, 44.906696783695537 ], [ -0.697005894444045, 44.906687335065286 ], [ -0.697017765695587, 44.906456558866232 ], [ -0.697181429219905, 44.906451248209777 ], [ -0.697132366144308, 44.906696783695537 ] ] ] } },
{ "type": "Feature", "properties": { "fid": 111, "type": "Signa", "description": "Traversee ", "photo": "20260227_103959.jpg" }, "geometry": { "type": "Polygon", "coordinates": [ [ [ -0.678631954934629, 44.910644723252979 ], [ -0.678473080400047, 44.910649852238762 ], [ -0.678533955718017, 44.910416240546759 ], [ -0.678609609952292, 44.910413798159709 ], [ -0.678631954934629, 44.910644723252979 ] ] ] } },
{ "type": "Feature", "properties": { "fid": 112, "type": "Signalisation ", "description": "Traversee ", "photo": "20260227_104108.jpg" }, "geometry": { "type": "Polygon", "coordinates": [ [ [ -0.676805798892546, 44.910404978029206 ], [ -0.676570884490811, 44.91041255801192 ], [ -0.676593731816155, 44.910134950757055 ], [ -0.676805798892546, 44.910404978029206 ] ] ] } }
]
}
