{
"type": "FeatureCollection",
"name": "vege",
"crs": { "type": "name", "properties": { "name": "urn:ogc:def:crs:OGC:1.3:CRS84" } },
"features": [
{ "type": "Feature", "properties": { "fid": 117, "type": "Amenagement ", "description": "Vegetation ", "photo": "20260227_105342.jpg" }, "geometry": { "type": "Polygon", "coordinates": [ [ [ -0.662663091335515, 44.918392603016187 ], [ -0.662281453927613, 44.918389527352474 ], [ -0.662283763444108, 44.918312750324219 ], [ -0.662663091335515, 44.918392603016187 ] ] ] } }
]
}
